{"spkid": "20455299", "covariance": {"elements": [{"units": null, "title": "eccentricity", "value": ".5770416642965885", "name": "e", "sigma": 2.26582772272035e-08, "label": "e"}, {"sigma": 5.16899094471791e-08, "name": "q", "units": "au", "value": ".9735093731412665", "title": "perihelion distance", "label": "q"}, {"label": "tp", "units": "TDB", "title": "time of perihelion passage", "value": "2458806.919841660074", "sigma": 1.83030162878106e-05, "name": "tp"}, {"label": "node", "title": "longitude of the ascending node", "value": "84.93971991305254", "units": "deg", "name": "om", "sigma": 5.27010035066791e-05}, {"label": "peri", "name": "w", "sigma": 5.15023148414784e-05, "units": "deg", "title": "argument of perihelion", "value": "186.5127067064102"}, {"label": "i", "units": "deg", "title": "inclination", "value": "9.515770234428995", "name": "i", "sigma": 5.33111786750409e-06}], "data": [["5.133975269048084E-16", "-1.170766312917159E-15", "2.816933219208806E-14", "-2.280812044093517E-13", "1.929495460597529E-13", "1.76471858480648E-15"], ["-1.170766312917159E-15", "2.671846738657573E-15", "-3.989099950290092E-14", "5.368991158415613E-13", "-4.483355613068215E-13", "-5.335114201933784E-15"], ["2.816933219208806E-14", "-3.989099950290092E-14", "3.350004052318617E-10", "7.825603279228783E-11", "4.305115774610278E-11", "-6.485160988170908E-12"], ["-2.280812044093517E-13", "5.368991158415613E-13", "7.825603279228783E-11", "2.777395770611001E-9", "-2.684314925799455E-9", "-2.232245328524927E-10"], ["1.929495460597529E-13", "-4.483355613068215E-13", "4.305115774610278E-11", "-2.684314925799455E-9", "2.652488434030764E-9", "2.184121214103563E-10"], ["1.76471858480648E-15", "-5.335114201933784E-15", "-6.485160988170908E-12", "-2.232245328524927E-10", "2.184121214103563E-10", "2.842081771722135E-11"]], "labels": ["e", "q", "tp", "node", "peri", "i"], "epoch": "2458188.5"}, "elements": [{"label": "e", "name": "e", "sigma": "2.2646E-8", "units": null, "title": "eccentricity", "value": ".5803493180610672"}, {"title": "semi-major axis", "value": "2.297871375596686", "units": "au", "sigma": "2.6048E-9", "name": "a", "label": "a"}, {"units": "au", "title": "perihelion distance", "value": ".9643032897771029", "name": "q", "sigma": "5.153E-8", "label": "q"}, {"units": "deg", "value": "9.523814923447471", "title": "inclination; angle with respect to x-y ecliptic plane", "name": "i", "sigma": "5.1872E-6", "label": "i"}, {"sigma": "5.2756E-5", "name": "om", "units": "deg", "title": "longitude of the ascending node", "value": "84.80996685579842", "label": "node"}, {"name": "w", "sigma": "5.1543E-5", "units": "deg", "title": "argument of perihelion", "value": "187.0502849758865", "label": "peri"}, {"label": "M", "name": "ma", "sigma": "6.1313E-6", "units": "deg", "value": "314.4940537907442", "title": "mean anomaly"}, {"sigma": "2.1864E-5", "name": "tp", "value": "2461361.324662257261", "title": "time of perihelion passage", "units": "TDB", "label": "tp"}, {"sigma": "2.1633E-6", "name": "per", "value": "1272.292595485857", "title": "sidereal orbital period", "units": "d", "label": "period"}, {"label": "n", "title": "mean motion", "value": ".2829537806612205", "units": "deg/d", "sigma": "4.8111E-10", "name": "n"}, {"label": "Q", "value": "3.631439461416269", "title": "aphelion distance", "units": "au", "sigma": "4.1164E-9", "name": "ad"}], "epoch": "2461200.5"}